NORAD_CAT_ID,OBJECT_NAME,OBJECT_TYPE,EPOCH,MEAN_MOTION,ECCENTRICITY,INCLINATION,RA_OF_ASC_NODE,ARG_OF_PERICENTER,MEAN_ANOMALY,BSTAR,MEAN_MOTION_DOT,MEAN_MOTION_DDOT,TLE_LINE0,TLE_LINE1,TLE_LINE2,SEMIMAJOR_AXIS,PERIOD,APOGEE,PERIGEE,DECAYED
54085.0,STARLINK-5166,PAYLOAD,2023-06-20 13:14:52,15.0883777,0.0001127,53.2167,112.5174,92.7856,267.3265,6.9845e-05,8.24e-06,0.0,0 STARLINK-5166,1 54085U 22136AL  23171.55199860  .00000824  00000-0  69845-4 0  9993,2 54085  53.2167 112.5174 0001127  92.7856 267.3265 15.08837770 37521,6917.887,95.438,540.532,538.973,0.0
54085.0,STARLINK-5166,PAYLOAD,2023-06-20 19:36:25,15.08839607,0.0001206,53.216,111.3279,94.5865,265.5265,8.0031e-05,9.86e-06,0.0,0 STARLINK-5166,1 54085U 22136AL  23171.81695798  .00000986  00000-0  80031-4 0  9992,2 54085  53.2160 111.3279 0001206  94.5865 265.5265 15.08839607 37098,6917.882,95.438,540.581,538.912,0.0
54085.0,STARLINK-5166,PAYLOAD,2023-06-21 01:57:57,15.08848117,0.0001203,53.2163,110.1385,93.3712,266.7418,6.3064e-05,7.16e-06,0.0,0 STARLINK-5166,1 54085U 22136AL  23172.08191295  .00000716  00000-0  63064-4 0  9993,2 54085  53.2163 110.1385 0001203  93.3712 266.7418 15.08848117 37607,6917.856,95.437,540.553,538.888,0.0
54085.0,STARLINK-5166,PAYLOAD,2023-06-21 13:05:39,15.08839676,0.0001303,53.2157,108.0564,87.1289,272.9852,1.4435e-05,-5.8e-07,0.0,0 STARLINK-5166,1 54085U 22136AL  23172.54559914 -.00000058  00000-0  14435-4 0  9998,2 54085  53.2157 108.0564 0001303  87.1289 272.9852 15.08839676 37203,6917.881,95.438,540.648,538.845,0.0
54085.0,STARLINK-5166,PAYLOAD,2023-06-23 01:39:31,15.08850431,0.0001292,53.2169,101.2157,103.543,256.5706,7.92e-05,9.73e-06,0.0,0 STARLINK-5166,1 54085U 22136AL  23174.06911388  .00000973  00000-0  79200-4 0  9990,2 54085  53.2169 101.2157 0001292 103.5430 256.5706 15.08850431 37902,6917.849,95.437,540.607,538.82,0.0
54085.0,STARLINK-5166,PAYLOAD,2023-06-23 19:08:46,15.08840229,0.0001415,53.2158,97.9461,88.7058,271.4096,0.00018183,2.607e-05,0.0,0 STARLINK-5166,1 54085U 22136AL  23174.79776206  .00002607  00000-0  18183-3 0  9996,2 54085  53.2158  97.9461 0001415  88.7058 271.4096 15.08840229 38011,6917.88,95.438,540.724,538.766,0.0
54085.0,STARLINK-5166,PAYLOAD,2023-06-24 04:41:04,15.08849395,0.0001294,53.2164,96.1605,99.9379,260.176,0.00015618,2.199e-05,0.0,0 STARLINK-5166,1 54085U 22136AL  23175.19519582  .00002199  00000-0  15618-3 0  9999,2 54085  53.2164  96.1605 0001294  99.9379 260.1760 15.08849395 38076,6917.852,95.437,540.612,538.822,0.0
54085.0,STARLINK-5166,PAYLOAD,2023-06-25 01:21:05,15.08845055,0.0001103,53.2157,92.2974,91.3737,268.7382,0.00011738,1.581e-05,0.0,0 STARLINK-5166,1 54085U 22136AL  23176.05631825  .00001581  00000-0  11738-3 0  9993,2 54085  53.2157  92.2974 0001103  91.3737 268.7382 15.08845055 38205,6917.865,95.437,540.493,538.967,0.0
54085.0,STARLINK-5166,PAYLOAD,2023-06-26 01:11:52,15.0884147,0.0001013,53.2158,87.8359,85.5805,274.5303,4.3472e-05,4.04e-06,0.0,0 STARLINK-5166,1 54085U 22136AL  23177.04991849  .00000404  00000-0  43472-4 0  9992,2 54085  53.2158  87.8359 0001013  85.5805 274.5303 15.08841470 38355,6917.876,95.437,540.442,539.04,0.0
54085.0,STARLINK-5166,PAYLOAD,2023-06-26 13:54:58,15.08829788,9.61e-05,53.2157,85.4586,98.2215,261.8886,1.7024e-07,-2.85e-06,0.0,0 STARLINK-5166,1 54085U 22136AL  23177.57984576 -.00000285  00000-0  17024-6 0  9993,2 54085  53.2157  85.4586 0000961  98.2215 261.8886 15.08829788 38439,6917.912,95.438,540.441,539.112,0.0
54085.0,STARLINK-5166,PAYLOAD,2023-06-26 20:16:32,15.08788314,0.000117,53.2166,84.2695,99.18,260.9325,0.00065763,0.00010179,0.0,0 STARLINK-5166,1 54085U 22136AL  23177.84481612  .00010179  00000-0  65763-3 0  9998,2 54085  53.2166  84.2695 0001170  99.1800 260.9325 15.08788314 38471,6918.038,95.441,540.713,539.094,0.0
54085.0,STARLINK-5166,PAYLOAD,2023-06-27 10:34:59,15.08843246,9.3e-05,53.217,81.5927,97.593,262.5167,3.5774e-05,2.82e-06,0.0,0 STARLINK-5166,1 54085U 22136AL  23178.44096224  .00000282  00000-0  35774-4 0  9990,2 54085  53.2170  81.5927 0000930  97.5930 262.5167 15.08843246 38561,6917.87,95.437,540.379,539.092,0.0
54085.0,STARLINK-5166,PAYLOAD,2023-06-27 15:21:09,15.08831178,9.55e-05,53.2171,80.7015,86.3851,273.725,6.4663e-05,7.41e-06,0.0,0 STARLINK-5166,1 54085U 22136AL  23178.63969049  .00000741  00000-0  64663-4 0  9994,2 54085  53.2171  80.7015 0000955  86.3851 273.7250 15.08831178 38597,6917.907,95.438,540.433,539.112,0.0
54085.0,STARLINK-5166,PAYLOAD,2023-06-28 00:53:27,15.08839112,9.67e-05,53.2171,78.9173,84.8294,275.2808,0.00011798,1.59e-05,0.0,0 STARLINK-5166,1 54085U 22136AL  23179.03712555  .00001590  00000-0  11798-3 0  9990,2 54085  53.2171  78.9173 0000967  84.8294 275.2808 15.08839112 38657,6917.883,95.438,540.417,539.079,0.0
54085.0,STARLINK-5166,PAYLOAD,2023-06-29 02:19:38,15.08841395,9.71e-05,53.2175,74.158,94.7111,265.3992,6.8761e-05,8.07e-06,0.0,0 STARLINK-5166,1 54085U 22136AL  23180.09696808  .00000807  00000-0  68761-4 0  9993,2 54085  53.2175  74.1580 0000971  94.7111 265.3992 15.08841395 38812,6917.876,95.437,540.413,539.069,0.0
54085.0,STARLINK-5166,PAYLOAD,2023-06-30 11:42:44,15.08839388,0.0001085,53.217,67.9139,82.2537,277.8579,8.75e-05,1.105e-05,0.0,0 STARLINK-5166,1 54085U 22136AL  23181.48800950  .00001105  00000-0  87500-4 0  9996,2 54085  53.2170  67.9139 0001085  82.2537 277.8579 15.08839388 39020,6917.882,95.438,540.498,538.997,0.0
54085.0,STARLINK-5166,PAYLOAD,2023-07-01 16:19:40,15.08840993,0.0001074,53.2171,62.5617,80.3036,279.8077,5.3976e-05,5.71e-06,0.0,0 STARLINK-5166,1 54085U 22136AL  23182.68032941  .00000571  00000-0  53976-4 0  9992,2 54085  53.2171  62.5617 0001074  80.3036 279.8077 15.08840993 39203,6917.877,95.437,540.485,538.999,0.0
54085.0,STARLINK-5166,PAYLOAD,2023-07-03 01:42:45,15.08844191,0.0001058,53.217,56.3161,98.5285,261.5827,7.9002e-05,9.7e-06,0.0,0 STARLINK-5166,1 54085U 22136AL  23184.07136538  .00000970  00000-0  79002-4 0  9995,2 54085  53.2170  56.3161 0001058  98.5285 261.5827 15.08844191 39414,6917.868,95.437,540.464,539.001,0.0
54085.0,STARLINK-5166,PAYLOAD,2023-07-03 16:01:14,15.08836072,0.0001259,53.217,53.6398,97.033,263.0805,-3.8596e-07,-2.94e-06,0.0,0 STARLINK-5166,1 54085U 22136AL  23184.66753358 -.00000294  00000-0 -38596-6 0  9991,2 54085  53.2170  53.6398 0001259  97.0330 263.0805 15.08836072 39506,6917.892,95.438,540.628,538.886,0.0
54085.0,STARLINK-5166,PAYLOAD,2023-07-04 23:48:57,15.08840512,0.0001058,53.2175,47.6921,94.3606,265.7508,6.0783e-05,6.8e-06,0.0,0 STARLINK-5166,1 54085U 22136AL  23185.99233203  .00000680  00000-0  60783-4 0  9998,2 54085  53.2175  47.6921 0001058  94.3606 265.7508 15.08840512 39704,6917.879,95.438,540.476,539.012,0.0
54085.0,STARLINK-5166,PAYLOAD,2023-07-06 07:36:40,15.08840109,0.0001102,53.2179,41.7449,88.4456,271.6662,7.6921e-05,9.37e-06,0.0,0 STARLINK-5166,1 54085U 22136AL  23187.31713463  .00000937  00000-0  76921-4 0  9993,2 54085  53.2179  41.7449 0001102  88.4456 271.6662 15.08840109 39906,6917.88,95.438,540.507,538.983,0.0
54085.0,STARLINK-5166,PAYLOAD,2023-07-07 16:59:46,15.08838799,0.0001041,53.2175,35.5006,88.1192,271.9919,6.2927e-05,7.14e-06,0.0,0 STARLINK-5166,1 54085U 22136AL  23188.70817587  .00000714  00000-0  62927-4 0  9993,2 54085  53.2175  35.5006 0001041  88.1192 271.9919 15.08838799 40113,6917.884,95.438,540.469,539.029,0.0
54085.0,STARLINK-5166,PAYLOAD,2023-07-08 20:01:19,15.08839398,0.0001072,53.2179,30.4441,91.3629,268.7486,5.5241e-05,5.91e-06,0.0,0 STARLINK-5166,1 54085U 22136AL  23189.83425560  .00000591  00000-0  55241-4 0  9998,2 54085  53.2179  30.4441 0001072  91.3629 268.7486 15.08839398 40286,6917.882,95.438,540.489,539.006,0.0
54085.0,STARLINK-5166,PAYLOAD,2023-07-09 00:47:28,15.08860763,0.0001192,53.2181,29.5527,92.2674,267.8454,-0.00018465,-3.227e-05,0.0,0 STARLINK-5166,1 54085U 22136AL  23190.03296675 -.00003227  00000-0 -18465-3 0  9992,2 54085  53.2181  29.5527 0001192  92.2674 267.8454 15.08860763 40315,6917.817,95.436,540.507,538.857,0.0
54085.0,STARLINK-5166,PAYLOAD,2023-07-09 18:16:43,15.08837316,0.0001092,53.2182,26.2835,78.8418,281.2697,4.8985e-05,4.92e-06,0.0,0 STARLINK-5166,1 54085U 22136AL  23190.76161789  .00000492  00000-0  48985-4 0  9999,2 54085  53.2182  26.2835 0001092  78.8418 281.2697 15.08837316 40426,6917.889,95.438,540.509,538.998,0.0
54085.0,STARLINK-5166,PAYLOAD,2023-07-10 21:18:16,15.08842895,0.0001028,53.2179,21.2273,90.4873,269.6237,6.8367e-05,8.01e-06,0.0,0 STARLINK-5166,1 54085U 22136AL  23191.88769395  .00000801  00000-0  68367-4 0  9990,2 54085  53.2179  21.2273 0001028  90.4873 269.6237 15.08842895 40593,6917.872,95.437,540.448,539.025,0.0
54085.0,STARLINK-5166,PAYLOAD,2023-07-11 05:15:13,15.08830388,0.0001093,53.2184,19.7417,88.9528,271.1589,-5.4426e-05,-1.154e-05,0.0,0 STARLINK-5166,1 54085U 22136AL  23192.21890710 -.00001154  00000-0 -54426-4 0  9999,2 54085  53.2184  19.7417 0001093  88.9528 271.1589 15.08830388 40640,6917.91,95.438,540.531,539.019,0.0
54085.0,STARLINK-5166,PAYLOAD,2023-07-11 19:33:44,15.08808762,0.0001193,53.2182,17.0646,83.4031,276.7097,-0.00018576,-3.24e-05,0.0,0 STARLINK-5166,1 54085U 22136AL  23192.81509468 -.00003240  00000-0 -18576-3 0  9995,2 54085  53.2182  17.0646 0001193  83.4031 276.7097 15.08808762 40739,6917.976,95.44,540.666,539.016,0.0
54085.0,STARLINK-5166,PAYLOAD,2023-07-12 13:02:56,15.08839963,9.04e-05,53.2182,13.7931,73.4267,286.6825,0.00011269,1.506e-05,0.0,0 STARLINK-5166,1 54085U 22136AL  23193.54371305  .00001506  00000-0  11269-3 0  9996,2 54085  53.2182  13.7931 0000904  73.4267 286.6825 15.08839963 40846,6917.881,95.438,540.371,539.12,0.0
54085.0,STARLINK-5166,PAYLOAD,2023-07-13 16:04:29,15.08839512,0.0001119,53.219,8.7386,71.7896,288.3218,0.00040773,6.207e-05,0.0,0 STARLINK-5166,1 54085U 22136AL  23194.66978920  .00006207  00000-0  40773-3 0  9991,2 54085  53.2190   8.7386 0001119  71.7896 288.3218 15.08839512 41016,6917.882,95.438,540.521,538.973,0.0
